NORAD_CAT_ID,OBJECT_NAME,OBJECT_TYPE,EPOCH,MEAN_MOTION,ECCENTRICITY,INCLINATION,RA_OF_ASC_NODE,ARG_OF_PERICENTER,MEAN_ANOMALY,BSTAR,MEAN_MOTION_DOT,MEAN_MOTION_DDOT,TLE_LINE0,TLE_LINE1,TLE_LINE2,SEMIMAJOR_AXIS,PERIOD,APOGEE,PERIGEE,DECAYED
53560.0,STARLINK-4564,PAYLOAD,2023-01-28 13:07:46,15.08841543,0.0001209,53.2192,114.6398,57.9809,302.13,1.5732e-05,-3.7e-07,0.0,0 STARLINK-4564,1 53560U 22101AK  23028.54706291 -.00000037  00000-0  15732-4 0  9997,2 53560  53.2192 114.6398 0001209  57.9809 302.1300 15.08841543 24920,6917.876,95.437,540.577,538.904,0.0
53560.0,STARLINK-4564,PAYLOAD,2023-01-28 22:40:04,15.08846143,9.44e-05,53.2185,112.8569,101.181,258.9288,-5.2409e-05,-1.122e-05,0.0,0 STARLINK-4564,1 53560U 22101AK  23028.94449991 -.00001122  00000-0 -52409-4 0  9991,2 53560  53.2185 112.8569 0000944 101.1810 258.9288 15.08846143 24981,6917.862,95.437,540.38,539.074,0.0
53560.0,STARLINK-4564,PAYLOAD,2023-01-29 11:23:10,15.08836925,0.0001048,53.2189,110.4767,82.961,277.1501,7.5057e-05,9.07e-06,0.0,0 STARLINK-4564,1 53560U 22101AK  23029.47442323  .00000907  00000-0  75057-4 0  9994,2 53560  53.2189 110.4767 0001048  82.9610 277.1501 15.08836925 25067,6917.89,95.438,540.48,539.03,0.0
53560.0,STARLINK-4564,PAYLOAD,2023-01-29 12:58:33,15.08834655,0.0001126,53.2188,110.1796,79.719,280.3929,0.00015396,2.163e-05,0.0,0 STARLINK-4564,1 53560U 22101AK  23029.54066197  .00002163  00000-0  15396-3 0  9998,2 53560  53.2188 110.1796 0001126  79.7190 280.3929 15.08834655 25078,6917.897,95.438,540.541,538.983,0.0
53560.0,STARLINK-4564,PAYLOAD,2023-01-30 11:13:57,15.08842806,0.0001113,53.2192,106.0156,82.8639,277.248,-2.6344e-05,-7.07e-06,0.0,0 STARLINK-4564,1 53560U 22101AK  23030.46802329 -.00000707  00000-0 -26344-4 0  9996,2 53560  53.2192 106.0156 0001113  82.8639 277.2480 15.08842806 25216,6917.872,95.437,540.507,538.967,0.0
53560.0,STARLINK-4564,PAYLOAD,2023-01-30 23:57:02,15.08841377,0.0001163,53.2189,103.6377,84.1684,275.944,5.4922e-06,-2e-06,0.0,0 STARLINK-4564,1 53560U 22101AK  23030.99794181 -.00000200  00000-0  54922-5 0  9991,2 53560  53.2189 103.6377 0001163  84.1684 275.9440 15.08841377 25291,6917.876,95.437,540.546,538.937,0.0
53560.0,STARLINK-4564,PAYLOAD,2023-01-31 11:04:43,15.08844112,0.0001056,53.2189,101.5545,108.9644,251.1463,-2.6603e-06,-3.3e-06,0.0,0 STARLINK-4564,1 53560U 22101AK  23031.46161851 -.00000330  00000-0 -26603-5 0  9996,2 53560  53.2189 101.5545 0001056 108.9644 251.1463 15.08844112 25366,6917.868,95.437,540.463,539.002,0.0
53560.0,STARLINK-4564,PAYLOAD,2023-02-01 10:55:31,15.08841446,0.0001228,53.2188,97.0965,77.8043,282.3087,-1.0662e-05,-4.58e-06,0.0,0 STARLINK-4564,1 53560U 22101AK  23032.45522104 -.00000458  00000-0 -10662-4 0  9996,2 53560  53.2188  97.0965 0001228  77.8043 282.3087 15.08841446 25510,6917.876,95.437,540.59,538.891,0.0
53560.0,STARLINK-4564,PAYLOAD,2023-02-02 10:46:18,15.08845144,0.0001566,53.2202,92.6392,108.0833,252.033,-0.00015266,-2.717e-05,0.0,0 STARLINK-4564,1 53560U 22101AK  23033.44882362 -.00002717  00000-0 -15266-3 0  9995,2 53560  53.2202  92.6392 0001566 108.0833 252.0330 15.08845144 25661,6917.865,95.437,540.813,538.646,0.0
53560.0,STARLINK-4564,PAYLOAD,2023-02-02 20:18:37,15.08834761,0.0001373,53.2199,90.8538,96.6869,263.4279,-4.4512e-05,-9.96e-06,0.0,0 STARLINK-4564,1 53560U 22101AK  23033.84626842 -.00000996  00000-0 -44512-4 0  9992,2 53560  53.2199  90.8538 0001373  96.6869 263.4279 15.08834761 25723,6917.896,95.438,540.711,538.812,0.0
53560.0,STARLINK-4564,PAYLOAD,2023-02-03 09:01:42,15.08835005,0.0001291,53.2194,88.4739,96.1897,263.9242,2.7312e-06,-2.44e-06,0.0,0 STARLINK-4564,1 53560U 22101AK  23034.37618760 -.00000244  00000-0  27312-5 0  9996,2 53560  53.2194  88.4739 0001291  96.1897 263.9242 15.08835005 25805,6917.896,95.438,540.654,538.868,0.0
53560.0,STARLINK-4564,PAYLOAD,2023-02-04 04:06:20,15.08833237,0.0001166,53.2194,84.9052,95.7604,264.3521,-1.7638e-05,-5.68e-06,0.0,0 STARLINK-4564,1 53560U 22101AK  23035.17107156 -.00000568  00000-0 -17638-4 0  9996,2 53560  53.2194  84.9052 0001166  95.7604 264.3521 15.08833237 25929,6917.901,95.438,540.573,538.959,0.0
53560.0,STARLINK-4564,PAYLOAD,2023-02-04 10:27:52,15.08841079,0.0001085,53.2191,83.7145,89.9752,270.1365,4.2051e-05,3.82e-06,0.0,0 STARLINK-4564,1 53560U 22101AK  23035.43602499  .00000382  00000-0  42051-4 0  9994,2 53560  53.2191  83.7145 0001085  89.9752 270.1365 15.08841079 25963,6917.877,95.437,540.493,538.992,0.0
53560.0,STARLINK-4564,PAYLOAD,2023-02-04 13:38:38,15.0884502,0.0001073,53.2192,83.1199,86.5099,273.6016,7.5988e-05,9.22e-06,0.0,0 STARLINK-4564,1 53560U 22101AK  23035.56850138  .00000922  00000-0  75988-4 0  9998,2 53560  53.2192  83.1199 0001073  86.5099 273.6016 15.08845020 25984,6917.865,95.437,540.472,538.988,0.0
53560.0,STARLINK-4564,PAYLOAD,2023-02-04 21:35:35,15.0882691,0.0001098,53.2192,81.633,90.5417,269.5701,-5.9371e-05,-1.232e-05,0.0,0 STARLINK-4564,1 53560U 22101AK  23035.89971772 -.00001232  00000-0 -59371-4 0  9997,2 53560  53.2192  81.6330 0001098  90.5417 269.5701 15.08826910 26039,6917.92,95.438,540.545,539.026,0.0
53560.0,STARLINK-4564,PAYLOAD,2023-02-05 03:57:07,15.08831493,0.0001051,53.2192,80.4435,89.0487,271.0625,-5.0505e-06,-3.68e-06,0.0,0 STARLINK-4564,1 53560U 22101AK  23036.16467444 -.00000368  00000-0 -50505-5 0  9994,2 53560  53.2192  80.4435 0001051  89.0487 271.0625 15.08831493 26070,6917.906,95.438,540.498,539.044,0.0
53560.0,STARLINK-4564,PAYLOAD,2023-02-05 13:29:25,15.08845395,0.0001096,53.2193,78.6594,90.1595,269.9523,5.6564e-05,6.13e-06,0.0,0 STARLINK-4564,1 53560U 22101AK  23036.56210427  .00000613  00000-0  56564-4 0  9996,2 53560  53.2193  78.6594 0001096  90.1595 269.9523 15.08845395 26134,6917.864,95.437,540.487,538.971,0.0
53560.0,STARLINK-4564,PAYLOAD,2023-02-05 21:26:22,15.08832077,0.0001265,53.2192,77.1729,84.8944,275.2192,-1.0849e-06,-3.05e-06,0.0,0 STARLINK-4564,1 53560U 22101AK  23036.89331508 -.00000305  00000-0 -10849-5 0  9993,2 53560  53.2192  77.1729 0001265  84.8944 275.2192 15.08832077 26183,6917.905,95.438,540.645,538.894,0.0
53560.0,STARLINK-4564,PAYLOAD,2023-02-06 02:12:31,15.08833167,0.0001179,53.2193,76.2807,86.245,273.8677,8.1445e-06,-1.58e-06,0.0,0 STARLINK-4564,1 53560U 22101AK  23037.09203477 -.00000158  00000-0  81445-5 0  9994,2 53560  53.2193  76.2807 0001179  86.2450 273.8677 15.08833167 26210,6917.901,95.438,540.582,538.951,0.0
53560.0,STARLINK-4564,PAYLOAD,2023-02-06 10:09:26,15.08843882,0.000114,53.2193,74.7939,84.6025,275.5097,9.2917e-05,1.191e-05,0.0,0 STARLINK-4564,1 53560U 22101AK  23037.42322538  .00001191  00000-0  92917-4 0  9993,2 53560  53.2193  74.7939 0001140  84.6025 275.5097 15.08843882 26262,6917.869,95.437,540.522,538.945,0.0
53560.0,STARLINK-4564,PAYLOAD,2023-02-06 13:20:12,15.08849739,0.0001138,53.2193,74.1992,84.2474,275.8648,0.00011421,1.531e-05,0.0,0 STARLINK-4564,1 53560U 22101AK  23037.55570050  .00001531  00000-0  11421-3 0  9999,2 53560  53.2193  74.1992 0001138  84.2474 275.8648 15.08849739 26280,6917.851,95.437,540.503,538.928,0.0
53560.0,STARLINK-4564,PAYLOAD,2023-02-06 14:55:35,15.08851831,0.0001136,53.2193,73.9019,84.4991,275.6131,0.00011005,1.465e-05,0.0,0 STARLINK-4564,1 53560U 22101AK  23037.62193882  .00001465  00000-0  11005-3 0  9995,2 53560  53.2193  73.9019 0001136  84.4991 275.6131 15.08851831 26293,6917.844,95.437,540.495,538.923,0.0
53560.0,STARLINK-4564,PAYLOAD,2023-02-06 19:41:44,15.08855093,0.0001106,53.2194,73.0098,85.0434,275.0684,7.4563e-05,9e-06,0.0,0 STARLINK-4564,1 53560U 22101AK  23037.82065617  .00000900  00000-0  74563-4 0  9993,2 53560  53.2194  73.0098 0001106  85.0434 275.0684 15.08855093 26323,6917.834,95.437,540.464,538.934,0.0
53560.0,STARLINK-4564,PAYLOAD,2023-02-07 02:03:18,15.08838517,0.0001178,53.2193,71.8202,92.4609,267.6518,0.00012559,1.711e-05,0.0,0 STARLINK-4564,1 53560U 22101AK  23038.08562570  .00001711  00000-0  12559-3 0  9999,2 53560  53.2193  71.8202 0001178  92.4609 267.6518 15.08838517 26369,6917.885,95.438,540.565,538.935,0.0
53560.0,STARLINK-4564,PAYLOAD,2023-02-07 11:35:35,15.08856266,0.0001176,53.2193,70.0361,93.2947,266.8179,0.00016295,2.308e-05,0.0,0 STARLINK-4564,1 53560U 22101AK  23038.48305114  .00002308  00000-0  16295-3 0  9996,2 53560  53.2193  70.0361 0001176  93.2947 266.8179 15.08856266 26420,6917.831,95.437,540.509,538.882,0.0
53560.0,STARLINK-4564,PAYLOAD,2023-02-07 13:10:58,15.08861323,0.0001172,53.2194,69.7389,92.9186,267.1941,0.00018944,2.73e-05,0.0,0 STARLINK-4564,1 53560U 22101AK  23038.54928631  .00002730  00000-0  18944-3 0  9990,2 53560  53.2194  69.7389 0001172  92.9186 267.1941 15.08861323 26435,6917.815,95.436,540.491,538.869,0.0
53560.0,STARLINK-4564,PAYLOAD,2023-02-07 21:07:56,15.08832754,0.0001151,53.2194,68.2522,106.2705,253.8414,-0.00013244,-2.395e-05,0.0,0 STARLINK-4564,1 53560U 22101AK  23038.88051343 -.00002395  00000-0 -13244-3 0  9991,2 53560  53.2194  68.2522 0001151 106.2705 253.8414 15.08832754 26489,6917.903,95.438,540.564,538.971,0.0
53560.0,STARLINK-4564,PAYLOAD,2023-02-07 22:43:19,15.08833278,0.0001124,53.2194,67.9548,108.1635,251.948,-0.00013059,-2.365e-05,0.0,0 STARLINK-4564,1 53560U 22101AK  23038.94675304 -.00002365  00000-0 -13059-3 0  9998,2 53560  53.2194  67.9548 0001124 108.1635 251.9480 15.08833278 26491,6917.901,95.438,540.544,538.988,0.0
53560.0,STARLINK-4564,PAYLOAD,2023-02-08 11:26:23,15.08848243,9.99e-05,53.2194,65.576,94.7985,265.3121,6.229e-05,7.04e-06,0.0,0 STARLINK-4564,1 53560U 22101AK  23039.47665800  .00000704  00000-0  62290-4 0  9992,2 53560  53.2194  65.5760 0000999  94.7985 265.3121 15.08848243 26576,6917.855,95.437,540.411,539.029,0.0
53560.0,STARLINK-4564,PAYLOAD,2023-02-08 13:01:46,15.08853362,9.76e-05,53.2195,65.2787,91.269,268.8414,8.3832e-05,1.047e-05,0.0,0 STARLINK-4564,1 53560U 22101AK  23039.54289353  .00001047  00000-0  83832-4 0  9991,2 53560  53.2195  65.2787 0000976  91.2690 268.8414 15.08853362 26585,6917.84,95.437,540.38,539.029,0.0
